[{"OBJECT_NAME":"OBJECT G","OBJECT_ID":"2025-155G","EPOCH":"2026-03-09T22:09:56.639808","MEAN_MOTION":15.27590702,"ECCENTRICITY":0.00081871,"INCLINATION":97.4488,"RA_OF_ASC_NODE":37.3259,"ARG_OF_PERICENTER":154.1528,"MEAN_ANOMALY":206.0122,"EPHEMERIS_TYPE":0,"CLASSIFICATION_TYPE":"U","NORAD_CAT_ID":64882,"ELEMENT_SET_NO":999,"REV_AT_EPOCH":6559,"BSTAR":0.0004792617,"MEAN_MOTION_DOT":0.00012876,"MEAN_MOTION_DDOT":0},{"OBJECT_NAME":"COSMOS 1536","OBJECT_ID":"1984-013A","EPOCH":"2026-03-09T12:33:00.332064","MEAN_MOTION":15.23821576,"ECCENTRICITY":0.00124739,"INCLINATION":82.5428,"RA_OF_ASC_NODE":108.0163,"ARG_OF_PERICENTER":284.1309,"MEAN_ANOMALY":75.8542,"EPHEMERIS_TYPE":0,"CLASSIFICATION_TYPE":"U","NORAD_CAT_ID":14699,"ELEMENT_SET_NO":999,"REV_AT_EPOCH":27259,"BSTAR":0.00029910457,"MEAN_MOTION_DOT":7.251e-5,"MEAN_MOTION_DDOT":0}]
